STARLINK-31092          
1 58628U 23203L   26068.37045179 -.00000528  00000+0 -96672-5 0  9998
2 58628  42.9979  68.7960 0000529 234.8552 125.2250 15.27572454123513
HAWK-11C                
1 62381U 24247E   26068.51221537  .00009223  00000+0  33290-3 0  9992
2 62381  45.0045 114.8762 0005900 329.7040  30.3502 15.28848020 67743
